{"type": "FeatureCollection", "features": [ {"type": "Feature", "properties": {"norad_id": 39155, "name": "COSMOS 2485 (747)", "group": "glo-ops", "lat": -22.68665026358, "lon": 68.6421395682528, "alt_km": 19149.372850336993, "timestamp": "2025-12-17T17:50:19.511804+00:00", "meta": {"OBJECT_NAME": "COSMOS 2485 (747)", "OBJECT_ID": "2013-019A", "EPOCH": "2025-12-17T07:21:50.321088", "MEAN_MOTION": 2.13103137, "ECCENTRICITY": 0.00247401, "INCLINATION": 65.3162, "RA_OF_ASC_NODE": 79.7134, "ARG_OF_PERICENTER": 229.9478, "MEAN_ANOMALY": 129.8522, "EPHEMERIS_TYPE": 0, "CLASSIFICATION_TYPE": "U", "NORAD_CAT_ID": 39155, "ELEMENT_SET_NO": 999, "REV_AT_EPOCH": 9840, "BSTAR": 0, "MEAN_MOTION_DOT": -4.8e-07, "MEAN_MOTION_DDOT": 0}, "tle": {"line1": "1 39155U 13019A   25351.30683242 -.00000048  00000+0  00000+0 0  9992", "line2": "2 39155  65.3162  79.7134 0024740 229.9478 129.8522  2.13103137 98408"}}, "geometry": {"type": "Point", "coordinates": [68.6421395682528, -22.68665026358]}}, {"type": "Feature", "properties": {"norad_id": 39620, "name": "COSMOS 2492 (754)", "group": "glo-ops", "lat": 5.993134017429637, "lon": -37.15838447600438, "alt_km": 19107.906941582605, "timestamp": "2025-12-17T17:50:19.511816+00:00", "meta": {"OBJECT_NAME": "COSMOS 2492 (754)", "OBJECT_ID": "2014-012A", "EPOCH": "2025-12-16T07:50:46.447872", "MEAN_MOTION": 2.13103282, "ECCENTRICITY": 0.00142536, "INCLINATION": 65.4058, "RA_OF_ASC_NODE": 320.149, "ARG_OF_PERICENTER": 313.159, "MEAN_ANOMALY": 46.7158, "EPHEMERIS_TYPE": 0, "CLASSIFICATION_TYPE": "U", "NORAD_CAT_ID": 39620, "ELEMENT_SET_NO": 999, "REV_AT_EPOCH": 9134, "BSTAR": 0, "MEAN_MOTION_DOT": -6.8e-07, "MEAN_MOTION_DDOT": 0}, "tle": {"line1": "1 39620U 14012A   25350.32692648 -.00000068  00000+0  00000+0 0  9996", "line2": "2 39620  65.4058 320.1490 0014253 313.1590  46.7158  2.13103282 91346"}}, "geometry": {"type": "Point", "coordinates": [-37.15838447600438, 5.993134017429637]}}, {"type": "Feature", "properties": {"norad_id": 40001, "name": "COSMOS 2500 (755)", "group": "glo-ops", "lat": -47.746669625024445, "lon": 170.2157751529374, "alt_km": 19115.359634525514, "timestamp": "2025-12-17T17:50:19.511840+00:00", "meta": {"OBJECT_NAME": "COSMOS 2500 (755)", "OBJECT_ID": "2014-032A", "EPOCH": "2025-12-16T23:14:23.843328", "MEAN_MOTION": 2.13106023, "ECCENTRICITY": 0.00080797, "INCLINATION": 65.3407, "RA_OF_ASC_NODE": 319.8884, "ARG_OF_PERICENTER": 219.086, "MEAN_ANOMALY": 140.8487, "EPHEMERIS_TYPE": 0, "CLASSIFICATION_TYPE": "U", "NORAD_CAT_ID": 40001, "ELEMENT_SET_NO": 999, "REV_AT_EPOCH": 8957, "BSTAR": 0, "MEAN_MOTION_DOT": -6.8e-07, "MEAN_MOTION_DDOT": 0}, "tle": {"line1": "1 40001U 14032A   25350.96833152 -.00000068  00000+0  00000+0 0  9990", "line2": "2 40001  65.3407 319.8884 0008079 219.0860 140.8487  2.13106023 89572"}}, "geometry": {"type": "Point", "coordinates": [170.2157751529374, -47.746669625024445]}}, {"type": "Feature", "properties": {"norad_id": 40315, "name": "COSMOS 2501 (702K)", "group": "glo-ops", "lat": 30.965079572956526, "lon": -146.00953996318077, "alt_km": 19176.851141071988, "timestamp": "2025-12-17T17:50:19.511858+00:00", "meta": {"OBJECT_NAME": "COSMOS 2501 (702K)", "OBJECT_ID": "2014-075A", "EPOCH": "2025-12-14T09:54:07.365600", "MEAN_MOTION": 2.13101427, "ECCENTRICITY": 0.00201134, "INCLINATION": 63.6139, "RA_OF_ASC_NODE": 196.7672, "ARG_OF_PERICENTER": 204.2903, "MEAN_ANOMALY": 155.6894, "EPHEMERIS_TYPE": 0, "CLASSIFICATION_TYPE": "U", "NORAD_CAT_ID": 40315, "ELEMENT_SET_NO": 999, "REV_AT_EPOCH": 8591, "BSTAR": 0, "MEAN_MOTION_DOT": 9.7e-07, "MEAN_MOTION_DDOT": 0}, "tle": {"line1": "1 40315U 14075A   25348.41258525  .00000097  00000+0  00000+0 0  9998", "line2": "2 40315  63.6139 196.7672 0020113 204.2903 155.6894  2.13101427 85910"}}, "geometry": {"type": "Point", "coordinates": [-146.00953996318077, 30.965079572956526]}}, {"type": "Feature", "properties": {"norad_id": 41330, "name": "COSMOS 2514 (751)", "group": "glo-ops", "lat": 41.88340343703569, "lon": -16.212446885323992, "alt_km": 19155.111446978437, "timestamp": "2025-12-17T17:50:19.511870+00:00", "meta": {"OBJECT_NAME": "COSMOS 2514 (751)", "OBJECT_ID": "2016-008A", "EPOCH": "2025-12-17T05:05:28.400064", "MEAN_MOTION": 2.13102689, "ECCENTRICITY": 0.00119109, "INCLINATION": 65.1312, "RA_OF_ASC_NODE": 319.2508, "ARG_OF_PERICENTER": 220.1411, "MEAN_ANOMALY": 139.7633, "EPHEMERIS_TYPE": 0, "CLASSIFICATION_TYPE": "U", "NORAD_CAT_ID": 41330, "ELEMENT_SET_NO": 999, "REV_AT_EPOCH": 7674, "BSTAR": 0, "MEAN_MOTION_DOT": -6.8e-07, "MEAN_MOTION_DDOT": 0}, "tle": {"line1": "1 41330U 16008A   25351.21213426 -.00000068  00000+0  00000+0 0  9996", "line2": "2 41330  65.1312 319.2508 0011910 220.1411 139.7633  2.13102689 76740"}}, "geometry": {"type": "Point", "coordinates": [-16.212446885323992, 41.88340343703569]}}, {"type": "Feature", "properties": {"norad_id": 42939, "name": "COSMOS 2522 (752)", "group": "glo-ops", "lat": 7.714415907350403, "lon": 14.283645403102884, "alt_km": 19119.513145169763, "timestamp": "2025-12-17T17:50:19.511882+00:00", "meta": {"OBJECT_NAME": "COSMOS 2522 (752)", "OBJECT_ID": "2017-055A", "EPOCH": "2025-12-16T02:41:16.915776", "MEAN_MOTION": 2.13102063, "ECCENTRICITY": 0.00063883, "INCLINATION": 64.0761, "RA_OF_ASC_NODE": 198.1142, "ARG_OF_PERICENTER": 224.0896, "MEAN_ANOMALY": 135.9399, "EPHEMERIS_TYPE": 0, "CLASSIFICATION_TYPE": "U", "NORAD_CAT_ID": 42939, "ELEMENT_SET_NO": 999, "REV_AT_EPOCH": 6407, "BSTAR": 0, "MEAN_MOTION_DOT": 1.09e-06, "MEAN_MOTION_DDOT": 0}, "tle": {"line1": "1 42939U 17055A   25350.11200134  .00000109  00000+0  00000+0 0  9990", "line2": "2 42939  64.0761 198.1142 0006388 224.0896 135.9399  2.13102063 64079"}}, "geometry": {"type": "Point", "coordinates": [14.283645403102884, 7.714415907350403]}}, {"type": "Feature", "properties": {"norad_id": 43508, "name": "COSMOS 2527 (756)", "group": "glo-ops", "lat": -19.465915200824952, "lon": -90.75797920118157, "alt_km": 19112.420814974954, "timestamp": "2025-12-17T17:50:19.511893+00:00", "meta": {"OBJECT_NAME": "COSMOS 2527 (756)", "OBJECT_ID": "2018-053A", "EPOCH": "2025-12-16T01:44:48.838272", "MEAN_MOTION": 2.13102153, "ECCENTRICITY": 0.00087862, "INCLINATION": 65.4745, "RA_OF_ASC_NODE": 80.02, "ARG_OF_PERICENTER": 225.9447, "MEAN_ANOMALY": 133.9962, "EPHEMERIS_TYPE": 0, "CLASSIFICATION_TYPE": "U", "NORAD_CAT_ID": 43508, "ELEMENT_SET_NO": 999, "REV_AT_EPOCH": 5837, "BSTAR": 0, "MEAN_MOTION_DOT": -5.4e-07, "MEAN_MOTION_DDOT": 0}, "tle": {"line1": "1 43508U 18053A   25350.07278748 -.00000054  00000+0  00000+0 0  9993", "line2": "2 43508  65.4745  80.0200 0008786 225.9447 133.9962  2.13102153 58379"}}, "geometry": {"type": "Point", "coordinates": [-90.75797920118157, -19.465915200824952]}}, {"type": "Feature", "properties": {"norad_id": 43687, "name": "COSMOS 2529 (757)", "group": "glo-ops", "lat": 46.23882385831142, "lon": -11.486428444201925, "alt_km": 19135.44765246054, "timestamp": "2025-12-17T17:50:19.511904+00:00", "meta": {"OBJECT_NAME": "COSMOS 2529 (757)", "OBJECT_ID": "2018-086A", "EPOCH": "2025-12-17T02:36:34.858656", "MEAN_MOTION": 2.13102066, "ECCENTRICITY": 0.00070854, "INCLINATION": 64.292, "RA_OF_ASC_NODE": 198.7408, "ARG_OF_PERICENTER": 253.7168, "MEAN_ANOMALY": 106.2877, "EPHEMERIS_TYPE": 0, "CLASSIFICATION_TYPE": "U", "NORAD_CAT_ID": 43687, "ELEMENT_SET_NO": 999, "REV_AT_EPOCH": 5540, "BSTAR": 0, "MEAN_MOTION_DOT": 1.11e-06, "MEAN_MOTION_DDOT": 0}, "tle": {"line1": "1 43687U 18086A   25351.10873679  .00000111  00000+0  00000+0 0  9999", "line2": "2 43687  64.2920 198.7408 0007085 253.7168 106.2877  2.13102066 55408"}}, "geometry": {"type": "Point", "coordinates": [-11.486428444201925, 46.23882385831142]}}, {"type": "Feature", "properties": {"norad_id": 44299, "name": "COSMOS 2534 (758)", "group": "glo-ops", "lat": -62.95781133930973, "lon": 88.92897399816223, "alt_km": 19115.68760644586, "timestamp": "2025-12-17T17:50:19.511915+00:00", "meta": {"OBJECT_NAME": "COSMOS 2534 (758)", "OBJECT_ID": "2019-030A", "EPOCH": "2025-12-15T05:49:22.027584", "MEAN_MOTION": 2.13102219, "ECCENTRICITY": 0.00088073, "INCLINATION": 64.3657, "RA_OF_ASC_NODE": 198.8086, "ARG_OF_PERICENTER": 283.8967, "MEAN_ANOMALY": 218.9019, "EPHEMERIS_TYPE": 0, "CLASSIFICATION_TYPE": "U", "NORAD_CAT_ID": 44299, "ELEMENT_SET_NO": 999, "REV_AT_EPOCH": 5100, "BSTAR": 0, "MEAN_MOTION_DOT": 1.03e-06, "MEAN_MOTION_DDOT": 0}, "tle": {"line1": "1 44299U 19030A   25349.24261606  .00000103  00000+0  00000+0 0  9993", "line2": "2 44299  64.3657 198.8086 0008807 283.8967 218.9019  2.13102219 51004"}}, "geometry": {"type": "Point", "coordinates": [88.92897399816223, -62.95781133930973]}}, {"type": "Feature", "properties": {"norad_id": 44850, "name": "COSMOS 2544 (759)", "group": "glo-ops", "lat": -54.827957700047236, "lon": -59.87818675684837, "alt_km": 19100.90524719459, "timestamp": "2025-12-17T17:50:19.511927+00:00", "meta": {"OBJECT_NAME": "COSMOS 2544 (759)", "OBJECT_ID": "2019-088A", "EPOCH": "2025-12-16T00:24:58.723776", "MEAN_MOTION": 2.13101973, "ECCENTRICITY": 0.00138315, "INCLINATION": 65.4622, "RA_OF_ASC_NODE": 79.8485, "ARG_OF_PERICENTER": 249.722, "MEAN_ANOMALY": 110.1429, "EPHEMERIS_TYPE": 0, "CLASSIFICATION_TYPE": "U", "NORAD_CAT_ID": 44850, "ELEMENT_SET_NO": 999, "REV_AT_EPOCH": 4681, "BSTAR": 0, "MEAN_MOTION_DOT": -5.5e-07, "MEAN_MOTION_DDOT": 0}, "tle": {"line1": "1 44850U 19088A   25350.01734634 -.00000055  00000+0  00000+0 0  9999", "line2": "2 44850  65.4622  79.8485 0013831 249.7220 110.1429  2.13101973 46815"}}, "geometry": {"type": "Point", "coordinates": [-59.87818675684837, -54.827957700047236]}}]}